[{"OBJECT_NAME":"NUSAT-41 (C PAYNE-G)","OBJECT_ID":"2023-084N","EPOCH":"2026-03-09T21:55:54.837696","MEAN_MOTION":15.29680045,"ECCENTRICITY":0.00062175,"INCLINATION":97.5351,"RA_OF_ASC_NODE":204.1011,"ARG_OF_PERICENTER":322.2064,"MEAN_ANOMALY":37.8738,"EPHEMERIS_TYPE":0,"CLASSIFICATION_TYPE":"U","NORAD_CAT_ID":56944,"ELEMENT_SET_NO":999,"REV_AT_EPOCH":15260,"BSTAR":0.00059912824,"MEAN_MOTION_DOT":0.0001718,"MEAN_MOTION_DDOT":0},{"OBJECT_NAME":"STARLINK-35293","OBJECT_ID":"2025-232H","EPOCH":"2026-03-09T12:26:44.788416","MEAN_MOTION":15.30199704,"ECCENTRICITY":0.00012706,"INCLINATION":53.1577,"RA_OF_ASC_NODE":104.4001,"ARG_OF_PERICENTER":77.7877,"MEAN_ANOMALY":282.3266,"EPHEMERIS_TYPE":0,"CLASSIFICATION_TYPE":"U","NORAD_CAT_ID":66012,"ELEMENT_SET_NO":999,"REV_AT_EPOCH":2341,"BSTAR":0.0011275386,"MEAN_MOTION_DOT":0.00033184,"MEAN_MOTION_DDOT":0}]
